[{"OBJECT_NAME":"OBJECT E","OBJECT_ID":"2023-003E","EPOCH":"2026-03-09T22:57:22.229856","MEAN_MOTION":15.50874714,"ECCENTRICITY":0.00052137,"INCLINATION":97.1526,"RA_OF_ASC_NODE":144.7632,"ARG_OF_PERICENTER":115.2688,"MEAN_ANOMALY":244.9106,"EPHEMERIS_TYPE":0,"CLASSIFICATION_TYPE":"U","NORAD_CAT_ID":55137,"ELEMENT_SET_NO":999,"REV_AT_EPOCH":17686,"BSTAR":0.00046048001,"MEAN_MOTION_DOT":0.00026586,"MEAN_MOTION_DDOT":0},{"OBJECT_NAME":"FLOCK 4Q-31","OBJECT_ID":"2023-174AF","EPOCH":"2026-03-09T18:16:50.892960","MEAN_MOTION":15.50423428,"ECCENTRICITY":0.00077968,"INCLINATION":97.3938,"RA_OF_ASC_NODE":157.7607,"ARG_OF_PERICENTER":152.0999,"MEAN_ANOMALY":208.0672,"EPHEMERIS_TYPE":0,"CLASSIFICATION_TYPE":"U","NORAD_CAT_ID":58285,"ELEMENT_SET_NO":999,"REV_AT_EPOCH":13034,"BSTAR":0.00063040896,"MEAN_MOTION_DOT":0.00035916,"MEAN_MOTION_DDOT":0}]
